NORAD_CAT_ID,OBJECT_NAME,OBJECT_TYPE,EPOCH,MEAN_MOTION,ECCENTRICITY,INCLINATION,RA_OF_ASC_NODE,ARG_OF_PERICENTER,MEAN_ANOMALY,BSTAR,MEAN_MOTION_DOT,MEAN_MOTION_DDOT,TLE_LINE0,TLE_LINE1,TLE_LINE2,SEMIMAJOR_AXIS,PERIOD,APOGEE,PERIGEE,DECAYED
55965.0,STARLINK-5894,PAYLOAD,2023-10-16 10:00:01,14.98335827,0.0002775,69.9999,311.1884,273.6212,285.2738,-0.00043895,-5.327e-05,0.0,0 STARLINK-5894,1 55965U 23037BD  23289.41668981 -.00005327  00000-0 -43895-3 0  9993,2 55965  69.9999 311.1884 0002775 273.6212 285.2738 14.98335827 33712,6950.175,96.107,573.969,570.111,0.0
55965.0,STARLINK-5894,PAYLOAD,2023-10-16 14:00:01,14.98339885,0.0002794,69.9997,310.7681,273.7516,103.8246,-0.0016462,-0.00019685,0.0,0 STARLINK-5894,1 55965U 23037BD  23289.58334491 -.00019685  00000-0 -16462-2 0  9998,2 55965  69.9997 310.7681 0002794 273.7516 103.8246 14.98339885  5928,6950.162,96.106,573.969,570.085,0.0
55965.0,STARLINK-5894,PAYLOAD,2023-10-16 22:00:00,14.98290642,0.0002781,69.9998,309.9275,265.123,109.951,0.0064662,0.00077844,0.0,0 STARLINK-5894,1 55965U 23037BD  23289.91667824  .00077844  00000-0  64662-2 0  9998,2 55965  69.9998 309.9275 0002781 265.1230 109.9510 14.98290642  5762,6950.315,96.11,574.112,570.247,0.0
55965.0,STARLINK-5894,PAYLOAD,2023-10-17 10:45:05,14.98329074,0.000216,69.9995,308.5872,273.3124,86.7788,4.2754e-05,4.17e-06,0.0,0 STARLINK-5894,1 55965U 23037BD  23290.44798315  .00000417  00000-0  42754-4 0  9990,2 55965  69.9995 308.5872 0002160 273.3124  86.7788 14.98329074 33864,6950.196,96.107,573.562,570.56,0.0
55965.0,STARLINK-5894,PAYLOAD,2023-10-18 02:46:26,14.9832727,0.0002668,70.0004,306.9057,271.409,88.6764,-8.1015e-05,-1.059e-05,0.0,0 STARLINK-5894,1 55965U 23037BD  23291.11558672 -.00001059  00000-0 -81015-4 0  9993,2 55965  70.0004 306.9057 0002668 271.4090  88.6764 14.98327270 33624,6950.201,96.107,573.921,570.212,0.0
55965.0,STARLINK-5894,PAYLOAD,2023-10-18 10:47:06,14.98327781,0.0002574,69.9999,306.0632,269.9658,90.1207,-7.87e-05,-1.032e-05,0.0,0 STARLINK-5894,1 55965U 23037BD  23291.44938638 -.00001032  00000-0 -78700-4 0  9991,2 55965  69.9999 306.0632 0002574 269.9658  90.1207 14.98327781 34013,6950.2,96.107,573.854,570.276,0.0
55965.0,STARLINK-5894,PAYLOAD,2023-10-18 18:47:47,14.98330956,0.0002405,70.0001,305.2211,283.568,76.5211,-1.1721e-05,-2.33e-06,0.0,0 STARLINK-5894,1 55965U 23037BD  23291.78318422 -.00000233  00000-0 -11721-4 0  9993,2 55965  70.0001 305.2211 0002405 283.5680  76.5211 14.98330956 33722,6950.19,96.107,573.726,570.383,0.0
55965.0,STARLINK-5894,PAYLOAD,2023-10-19 04:24:35,14.9833042,0.0002618,69.999,304.2114,274.2778,85.8082,5.2203e-05,5.3e-06,0.0,0 STARLINK-5894,1 55965U 23037BD  23292.18374038  .00000530  00000-0  52203-4 0  9991,2 55965  69.9990 304.2114 0002618 274.2778  85.8082 14.98330420 34128,6950.192,96.107,573.876,570.237,0.0
55965.0,STARLINK-5894,PAYLOAD,2023-10-19 10:49:06,14.98337572,0.0002744,69.9984,303.5374,272.2294,87.8551,7.7266e-05,8.29e-06,0.0,0 STARLINK-5894,1 55965U 23037BD  23292.45077439  .00000829  00000-0  77266-4 0  9993,2 55965  69.9984 303.5374 0002744 272.2294  87.8551 14.98337572 34164,6950.169,96.107,573.942,570.127,0.0
55965.0,STARLINK-5894,PAYLOAD,2023-10-20 04:26:36,14.98326388,0.0002695,69.9987,301.6861,271.5721,88.5129,3.1086e-05,2.78e-06,0.0,0 STARLINK-5894,1 55965U 23037BD  23293.18514237  .00000278  00000-0  31086-4 0  9994,2 55965  69.9987 301.6861 0002695 271.5721  88.5129 14.98326388 34273,6950.204,96.107,573.942,570.196,0.0
55965.0,STARLINK-5894,PAYLOAD,2023-10-20 10:51:08,14.98326145,0.000276,69.9984,301.0122,268.6021,91.4822,8.5318e-06,9e-08,0.0,0 STARLINK-5894,1 55965U 23037BD  23293.45218335  .00000009  00000-0  85318-5 0  9994,2 55965  69.9984 301.0122 0002760 268.6021  91.4822 14.98326145 33977,6950.205,96.107,573.988,570.152,0.0
55965.0,STARLINK-5894,PAYLOAD,2023-10-21 10:53:09,14.98333838,0.0002611,69.9988,298.4877,272.0275,88.0585,-2.0742e-05,-3.4e-06,0.0,0 STARLINK-5894,1 55965U 23037BD  23294.45357949 -.00000340  00000-0 -20742-4 0  9999,2 55965  69.9988 298.4877 0002611 272.0275  88.0585 14.98333838 34462,6950.181,96.107,573.861,570.231,0.0
55965.0,STARLINK-5894,PAYLOAD,2023-10-21 17:17:41,14.9833132,0.0002242,69.9999,297.8135,269.7491,90.3411,-3.5061e-06,-1.35e-06,0.0,0 STARLINK-5894,1 55965U 23037BD  23294.72062097 -.00000135  00000-0 -35061-5 0  9999,2 55965  69.9999 297.8135 0002242 269.7491  90.3411 14.98331320 34162,6950.189,96.107,573.612,570.496,0.0
55965.0,STARLINK-5894,PAYLOAD,2023-10-22 09:19:02,14.98327845,0.0002354,69.9991,296.1306,257.3784,102.7112,7.0142e-05,7.44e-06,0.0,0 STARLINK-5894,1 55965U 23037BD  23295.38821911  .00000744  00000-0  70142-4 0  9992,2 55965  69.9991 296.1306 0002354 257.3784 102.7112 14.98327845 34262,6950.2,96.107,573.701,570.428,0.0
55965.0,STARLINK-5894,PAYLOAD,2023-10-22 17:19:42,14.98327966,0.0002338,69.9994,295.2887,266.0365,94.0527,2.0261e-05,1.49e-06,0.0,0 STARLINK-5894,1 55965U 23037BD  23295.72202095  .00000149  00000-0  20261-4 0  9992,2 55965  69.9994 295.2887 0002338 266.0365  94.0527 14.98327966 34653,6950.199,96.107,573.689,570.439,0.0
55965.0,STARLINK-5894,PAYLOAD,2023-10-23 17:21:43,14.98327182,0.0002572,69.9992,292.7632,270.9273,89.1591,-5.2442e-05,-7.19e-06,0.0,0 STARLINK-5894,1 55965U 23037BD  23296.72342374 -.00000719  00000-0 -52442-4 0  9999,2 55965  69.9992 292.7632 0002572 270.9273  89.1591 14.98327182 34806,6950.202,96.107,573.854,570.279,0.0
55965.0,STARLINK-5894,PAYLOAD,2023-10-24 09:23:04,14.98327191,0.0002617,69.9986,291.08,266.1546,93.9314,-1.3682e-07,-9.5e-07,0.0,0 STARLINK-5894,1 55965U 23037BD  23297.39102234 -.00000095  00000-0 -13682-6 0  9994,2 55965  69.9986 291.0800 0002617 266.1546  93.9314 14.98327191 34567,6950.202,96.107,573.885,570.248,0.0
55965.0,STARLINK-5894,PAYLOAD,2023-10-25 09:25:05,14.98319968,0.0002514,69.9991,288.555,266.4538,93.6334,0.00024788,2.865e-05,0.0,0 STARLINK-5894,1 55965U 23037BD  23298.39242047  .00002865  00000-0  24788-3 0  9993,2 55965  69.9991 288.5550 0002514 266.4538  93.6334 14.98319968 35053,6950.224,96.108,573.836,570.342,0.0
55965.0,STARLINK-5894,PAYLOAD,2023-10-26 09:27:06,14.98327774,0.0002479,69.9993,286.0313,261.524,98.5638,4.3376e-05,4.25e-06,0.0,0 STARLINK-5894,1 55965U 23037BD  23299.39382036  .00000425  00000-0  43376-4 0  9992,2 55965  69.9993 286.0313 0002479 261.5240  98.5638 14.98327774 35203,6950.2,96.107,573.788,570.342,0.0
55965.0,STARLINK-5894,PAYLOAD,2023-10-27 04:40:43,14.98278778,0.0001903,69.9994,284.0108,264.9385,95.1557,0.0009831,0.00011641,0.0,0 STARLINK-5894,1 55965U 23037BD  23300.19495267  .00011641  00000-0  98310-3 0  9993,2 55965  69.9994 284.0108 0001903 264.9385  95.1557 14.98278778 35327,6950.351,96.11,573.539,570.894,0.0
55965.0,STARLINK-5894,PAYLOAD,2023-10-27 09:29:04,14.98406363,0.0001937,70.0001,283.506,246.0624,114.0332,-0.0011633,-0.00013972,0.0,0 STARLINK-5894,1 55965U 23037BD  23300.39519585 -.00013972  00000-0 -11633-2 0  9998,2 55965  70.0001 283.5060 0001937 246.0624 114.0332 14.98406363 35352,6949.957,96.102,573.168,570.476,0.0
55965.0,STARLINK-5894,PAYLOAD,2023-10-27 15:53:38,14.98373558,0.0002489,70.0013,282.8318,276.4134,83.6741,-0.00074074,-8.93e-05,0.0,0 STARLINK-5894,1 55965U 23037BD  23300.66224571 -.00008930  00000-0 -74074-3 0  9993,2 55965  70.0013 282.8318 0002489 276.4134  83.6741 14.98373558 35397,6950.058,96.104,573.653,570.193,0.0
55965.0,STARLINK-5894,PAYLOAD,2023-10-27 22:18:11,14.98327886,0.0002539,69.9998,282.1598,265.8573,94.2296,1.2633e-05,5.8e-07,0.0,0 STARLINK-5894,1 55965U 23037BD  23300.92929752  .00000058  00000-0  12633-4 0  9990,2 55965  69.9998 282.1598 0002539 265.8573  94.2296 14.98327886 35097,6950.199,96.107,573.829,570.3,0.0
55965.0,STARLINK-5894,PAYLOAD,2023-10-27 23:54:19,14.98325899,0.0002474,70.0005,281.9911,267.7682,92.3193,2.207e-05,1.7e-06,0.0,0 STARLINK-5894,1 55965U 23037BD  23300.99605855  .00000170  00000-0  22070-4 0  9993,2 55965  70.0005 281.9911 0002474 267.7682  92.3193 14.98325899 35441,6950.206,96.107,573.79,570.351,0.0
55965.0,STARLINK-5894,PAYLOAD,2023-10-28 09:31:08,14.98324186,0.0002654,70.0004,280.9812,267.9775,92.108,-1.8556e-05,-3.14e-06,0.0,0 STARLINK-5894,1 55965U 23037BD  23301.39662149 -.00000314  00000-0 -18556-4 0  9993,2 55965  70.0004 280.9812 0002654 267.9775  92.1080 14.98324186 35164,6950.211,96.107,573.92,570.231,0.0
55965.0,STARLINK-5894,PAYLOAD,2023-10-28 22:20:12,14.98332614,0.0002664,69.9997,279.6349,266.5078,93.5776,-4.7255e-05,-6.57e-06,0.0,0 STARLINK-5894,1 55965U 23037BD  23301.93069688 -.00000657  00000-0 -47255-4 0  9990,2 55965  69.9997 279.6349 0002664 266.5078  93.5776 14.98332614 35245,6950.185,96.107,573.901,570.198,0.0
55965.0,STARLINK-5894,PAYLOAD,2023-10-29 04:44:39,14.98380782,0.0002768,70.0006,278.9602,258.5923,101.4925,0.0011113,0.00013209,0.0,0 STARLINK-5894,1 55965U 23037BD  23302.19767778  .00013209  00000-0  11113-2 0  9991,2 55965  70.0006 278.9602 0002768 258.5923 101.4925 14.98380782 35624,6950.036,96.104,573.825,569.977,0.0
55965.0,STARLINK-5894,PAYLOAD,2023-10-29 07:56:53,14.9841341,0.0003016,69.9998,278.6237,265.6556,94.4258,0.0012866,0.00015325,0.0,0 STARLINK-5894,1 55965U 23037BD  23302.33117475  .00015325  00000-0  12866-2 0  9997,2 55965  69.9998 278.6237 0003016 265.6556  94.4258 14.98413410 35647,6949.935,96.102,573.896,569.704,0.0
55965.0,STARLINK-5894,PAYLOAD,2023-10-29 15:57:41,14.98315978,0.000296,70.0,277.7822,267.0873,92.9947,-0.00021829,-2.696e-05,0.0,0 STARLINK-5894,1 55965U 23037BD  23302.66506850 -.00002696  00000-0 -21829-3 0  9991,2 55965  70.0000 277.7822 0002960 267.0873  92.9947 14.98315978 35692,6950.236,96.108,574.159,570.044,0.0
55965.0,STARLINK-5894,PAYLOAD,2023-10-29 22:22:13,14.98323592,0.0002664,69.9994,277.1091,269.0889,90.9965,-9.7239e-08,-9.4e-07,0.0,0 STARLINK-5894,1 55965U 23037BD  23302.93210062 -.00000094  00000-0 -97239-7 0  9990,2 55965  69.9994 277.1091 0002664 269.0889  90.9965 14.98323592 35399,6950.213,96.107,573.929,570.226,0.0
